[{"OBJECT_NAME":"STARLINK-5280","OBJECT_ID":"2022-141K","EPOCH":"2026-03-09T05:05:10.249152","MEAN_MOTION":15.0883784,"ECCENTRICITY":0.0001202,"INCLINATION":53.2192,"RA_OF_ASC_NODE":6.3946,"ARG_OF_PERICENTER":91.0782,"MEAN_ANOMALY":269.0348,"EPHEMERIS_TYPE":0,"CLASSIFICATION_TYPE":"U","NORAD_CAT_ID":54166,"ELEMENT_SET_NO":999,"REV_AT_EPOCH":18578,"BSTAR":-1.6560268e-5,"MEAN_MOTION_DOT":-5.51e-6,"MEAN_MOTION_DDOT":0},{"OBJECT_NAME":"OBJECT B","OBJECT_ID":"2025-226B","EPOCH":"2026-03-09T23:02:31.139232","MEAN_MOTION":15.09715314,"ECCENTRICITY":0.00204156,"INCLINATION":97.6443,"RA_OF_ASC_NODE":147.8366,"ARG_OF_PERICENTER":114.3969,"MEAN_ANOMALY":245.9393,"EPHEMERIS_TYPE":0,"CLASSIFICATION_TYPE":"U","NORAD_CAT_ID":65939,"ELEMENT_SET_NO":999,"REV_AT_EPOCH":2260,"BSTAR":0.00038297064,"MEAN_MOTION_DOT":6.14e-5,"MEAN_MOTION_DDOT":0}]
